; generated by Adaptive Detail Printing (ADP) Slicer 0.1.0
; model: adp_demo_box
; strategy: fine outer wall first, coarse backing wall after each coarse-height band
; fine: T0 nozzle=0.2mm layer=0.2mm
; coarse: T1 nozzle=0.8mm layer=0.8mm
G21 ; millimeters
G90 ; absolute XY
M83 ; relative extrusion
T0 ; select ADP fine tool
G92 E0
; ADP_FINE_OUTER_WALL band=1 z=0.2 nozzle=0.2 line_width=0.24
; ADP_FINE_LAYER index=1
G0 Z0.2 F9000
G0 X0 Y0 F9000
G1 X40 Y0 E0.79824 F1800
G1 X40 Y30 E0.59868 F1800
G1 X0 Y30 E0.79824 F1800
G1 X0 Y0 E0.59868 F1800
; ADP_FINE_OUTER_WALL band=1 z=0.4 nozzle=0.2 line_width=0.24
; ADP_FINE_LAYER index=2
G0 Z0.4 F9000
G0 X0 Y0 F9000
G1 X40 Y0 E0.79824 F1800
G1 X40 Y30 E0.59868 F1800
G1 X0 Y30 E0.79824 F1800
G1 X0 Y0 E0.59868 F1800
; ADP_FINE_OUTER_WALL band=1 z=0.6 nozzle=0.2 line_width=0.24
; ADP_FINE_LAYER index=3
G0 Z0.6 F9000
G0 X0 Y0 F9000
G1 X40 Y0 E0.79824 F1800
G1 X40 Y30 E0.59868 F1800
G1 X0 Y30 E0.79824 F1800
G1 X0 Y0 E0.59868 F1800
; ADP_FINE_OUTER_WALL band=1 z=0.8 nozzle=0.2 line_width=0.24
; ADP_FINE_LAYER index=4
G0 Z0.8 F9000
G0 X0 Y0 F9000
G1 X40 Y0 E0.79824 F1800
G1 X40 Y30 E0.59868 F1800
G1 X0 Y30 E0.79824 F1800
G1 X0 Y0 E0.59868 F1800
T1 ; select ADP coarse tool
G92 E0
; ADP_COARSE_BACKING_WALL band=1 z=0.8 nozzle=0.8 line_width=0.8
G0 X0.52 Y0.52 F9000
G1 X39.48 Y0.52 E10.36652 F1200
G1 X39.48 Y29.48 E7.70571 F1200
G1 X0.52 Y29.48 E10.36652 F1200
G1 X0.52 Y0.52 E7.70571 F1200
T0 ; select ADP fine tool
G92 E0
; ADP_FINE_OUTER_WALL band=2 z=1 nozzle=0.2 line_width=0.24
; ADP_FINE_LAYER index=5
G0 Z1 F9000
G0 X0 Y0 F9000
G1 X40 Y0 E0.79824 F1800
G1 X40 Y30 E0.59868 F1800
G1 X0 Y30 E0.79824 F1800
G1 X0 Y0 E0.59868 F1800
; ADP_FINE_OUTER_WALL band=2 z=1.2 nozzle=0.2 line_width=0.24
; ADP_FINE_LAYER index=6
G0 Z1.2 F9000
G0 X0 Y0 F9000
G1 X40 Y0 E0.79824 F1800
G1 X40 Y30 E0.59868 F1800
G1 X0 Y30 E0.79824 F1800
G1 X0 Y0 E0.59868 F1800
; ADP_FINE_OUTER_WALL band=2 z=1.4 nozzle=0.2 line_width=0.24
; ADP_FINE_LAYER index=7
G0 Z1.4 F9000
G0 X0 Y0 F9000
G1 X40 Y0 E0.79824 F1800
G1 X40 Y30 E0.59868 F1800
G1 X0 Y30 E0.79824 F1800
G1 X0 Y0 E0.59868 F1800
; ADP_FINE_OUTER_WALL band=2 z=1.6 nozzle=0.2 line_width=0.24
; ADP_FINE_LAYER index=8
G0 Z1.6 F9000
G0 X0 Y0 F9000
G1 X40 Y0 E0.79824 F1800
G1 X40 Y30 E0.59868 F1800
G1 X0 Y30 E0.79824 F1800
G1 X0 Y0 E0.59868 F1800
T1 ; select ADP coarse tool
G92 E0
; ADP_COARSE_BACKING_WALL band=2 z=1.6 nozzle=0.8 line_width=0.8
G0 X0.52 Y0.52 F9000
G1 X39.48 Y0.52 E10.36652 F1200
G1 X39.48 Y29.48 E7.70571 F1200
G1 X0.52 Y29.48 E10.36652 F1200
G1 X0.52 Y0.52 E7.70571 F1200
; ADP_END
G92 E0
